ONEWEB-0589             
1 54655U 22166P   25023.15421553  .00000074  00000+0  14868-3 0  9990
2 54655  87.9328 345.6182 0001633  52.0480 308.0801 13.21827793104160
ONEWEB-0590             
1 54656U 22166Q   25022.19383239  .00000038  00000+0  61058-4 0  9996
2 54656  87.9313 345.8092 0001948  78.6592 281.4761 13.21824511104023
ONEWEB-0591             
1 54657U 22166R   25022.35784618  .00000017  00000+0  90483-5 0  9993
2 54657  87.9327 345.7776 0001800  76.2867 283.8467 13.21824774104078
ONEWEB-0592             
1 54658U 22166S   25022.43667770  .00000064  00000+0  12409-3 0  9994
2 54658  87.9322 345.7197 0001838  76.5281 283.6057 13.21828252103960
ONEWEB-0593             
1 54659U 22166T   25023.14160662  .00000085  00000+0  17331-3 0  9994
2 54659  87.9328 345.6128 0001731  74.8713 285.2612 13.21827569104161
ONEWEB-0594             
1 54660U 22166U   25023.16054815  .00000075  00000+0  14966-3 0  9990
2 54660  87.9330 345.6166 0001730  83.2095 276.9236 13.21825142104180
ONEWEB-0595             
1 54661U 22166V   25022.45717321 -.00000220  00000+0 -56504-3 0  9998
2 54661  87.9329 345.7382 0001922  85.4351 274.7003 13.21825689104063
ONEWEB-0596             
1 54662U 22166W   25022.35467056  .00000052  00000+0  93261-4 0  9998
2 54662  87.9328 345.7683 0001908  74.8892 285.2453 13.21823948104054
ONEWEB-0597             
1 54663U 22166X   25023.16841201  .00000029  00000+0  38245-4 0  9992
2 54663  87.9332 345.6095 0001640  74.1757 285.9558 13.21827483104165
ONEWEB-0600             
1 54664U 22166Y   25023.45384996  .00000083  00000+0  17065-3 0  9994
2 54664  87.9326 345.5806 0001652  79.9255 280.2065 13.21824096104176
ONEWEB-0601             
1 54665U 22166Z   25022.46191258 -.00000076  00000+0 -21598-3 0  9992
2 54665  87.9333 345.7581 0001746  67.6094 292.5225 13.21826434104235
ONEWEB-0602             
1 54666U 22166AA  25022.35152605  .00000050  00000+0  90395-4 0  9996
2 54666  87.9330 345.7818 0001571  76.0750 284.0559 13.21823669104069
ONEWEB-0603             
1 54667U 22166AB  25022.35625367  .00000069  00000+0  13486-3 0  9992
2 54667  87.9304 345.7620 0001634  72.0920 288.0392 13.21827468103998
ONEWEB-0604             
1 54668U 22166AC  25022.19224895 -.00000052  00000+0 -15741-3 0  9996
2 54668  87.9320 345.7825 0001645  77.2331 282.8987 13.21826622103936
ONEWEB-0605             
1 54669U 22166AD  25022.33734465  .00000045  00000+0  78083-4 0  9991
2 54669  87.9323 345.7853 0002080  60.3352 299.7989 13.21824703104029
ONEWEB-0606             
1 54670U 22166AE  25022.43511405  .00000079  00000+0  15885-3 0  9998
2 54670  87.9330 345.7683 0001907  86.1169 274.0183 13.21825144104098
ONEWEB-0607             
1 54671U 22166AF  25023.15896798  .00000046  00000+0  81082-4 0  9997
2 54671  87.9329 345.5950 0001686  76.4433 283.6889 13.21824415104169
ONEWEB-0608             
1 54672U 22166AG  25023.16525665  .00000064  00000+0  12434-3 0  9995
2 54672  87.9312 345.6087 0001750  65.5837 294.5480 13.21823783104630
ONEWEB-0610             
1 54673U 22166AH  25023.44912900  .00000120  00000+0  25818-3 0  9992
2 54673  87.9329 345.5555 0001765  65.4619 294.6698 13.21824638104116
ONEWEB-0611             
1 54674U 22166AJ  25023.44283488  .00000085  00000+0  17382-3 0  9992
2 54674  87.9329 345.5545 0001831  91.8838 268.2506 13.21827439104102
ONEWEB-0612             
1 54675U 22166AK  25022.16859473  .00000073  00000+0  14454-3 0  9998
2 54675  87.9325 345.7872 0001746  73.9511 286.1815 13.21823796103921
ONEWEB-0615             
1 54676U 22166AL  25022.14965657 -.00000238  00000+0 -60822-3 0  9994
2 54676  87.9325 345.8166 0001572  76.9130 283.2179 13.21824590103931
ONEWEB-0655             
1 54677U 22166AM  25022.12285765 -.00000046  00000+0 -14167-3 0  9996
2 54677  87.9326 345.8255 0001414  78.4498 281.6795 13.21828010103927
ONEWEB-0659             
1 54678U 22166AN  25023.35135084  .00000040  00000+0  64426-4 0  9997
2 54678  87.9326 345.5849 0001968  82.5376 277.5981 13.21823809104179
ONEWEB-0685             
1 54679U 22166AP  25022.44456682  .00000078  00000+0  15675-3 0  9999
2 54679  87.9327 345.7574 0001555  77.4071 282.7237 13.21827586103947
ONEWEB-0712             
1 54680U 22166AQ  25023.27242123  .00000059  00000+0  12179-3 0  9991
2 54680  87.9118 330.3733 0001214  92.1321 267.9949 13.16593712104961
ONEWEB-0714             
1 54681U 22166AR  25022.45087474  .00000094  00000+0  19705-3 0  9998
2 54681  87.9329 345.7460 0001622  78.1554 281.9762 13.21823751104063
ONEWEB-0532             
1 55140U 23004A   25023.19790474  .00000082  00000+0  17835-3 0  9993
2 55140  87.9088 107.4682 0001976  89.6152 270.5206 13.17649315100428
ONEWEB-0533             
1 55141U 23004B   25023.58325873 -.00000259  00000+0 -75613-3 0  9990
2 55141  87.8861  92.1193 0001673 102.5378 257.5937 13.12440171101211
ONEWEB-0541             
1 55142U 23004C   25022.98578888 -.00000418  00000+0 -12158-2 0  9991
2 55142  87.8906 122.7432 0001708 106.1367 253.9949 13.11416436 99074
ONEWEB-0543             
1 55143U 23004D   25023.57767586  .00000082  00000+0  17528-3 0  9995
2 55143  87.9065  76.9124 0001671 109.1557 250.9757 13.18683951102538
ONEWEB-0544             
1 55144U 23004E   25023.57134584  .00000013  00000+0  21798-6 0  9993
2 55144  87.9067  76.9014 0002015 103.5819 256.5537 13.18683492102539
ONEWEB-0560             
1 55145U 23004F   25023.56503428  .00000066  00000+0  13344-3 0  9993
2 55145  87.9076  76.8667 0002066 108.5049 251.6308 13.18683849102548
ONEWEB-0565             
1 55146U 23004G   25023.55871274  .00000044  00000+0  79180-4 0  9997
2 55146  87.9071  76.9353 0002470  99.4861 260.6550 13.18683982102532
ONEWEB-0567             
1 55147U 23004H   25023.55239101  .00000094  00000+0  20533-3 0  9997
2 55147  87.9071  76.8914 0002321 105.2960 254.8428 13.18684385102533
ONEWEB-0569             
1 55148U 23004J   25023.60760814  .00000025  00000+0  32597-4 0  9992
2 55148  87.8888  61.5275 0002653 114.6207 245.5199 13.13469851103285
ONEWEB-0570             
1 55149U 23004K   25023.61561225  .00000017  00000+0  10647-4 0  9992
2 55149  87.9070  76.8802 0002313  84.4801 275.6595 13.18684637102539
ONEWEB-0571             
1 55150U 23004L   25023.60929333  .00000020  00000+0  17727-4 0  9991
2 55150  87.9072  76.8895 0003020 103.0933 257.0537 13.18689044102543
ONEWEB-0572             
1 55151U 23004M   25023.60795337  .00000081  00000+0  17598-3 0  9999
2 55151  87.9087 107.3939 0002019 100.5140 259.6219 13.17648799100373
ONEWEB-0573             
1 55152U 23004N   25023.60298074 -.00000011  00000+0 -61191-4 0  9990
2 55152  87.9067  76.9013 0002781  94.8908 265.2541 13.18685292102530
ONEWEB-0588             
1 55153U 23004P   25023.59664280  .00000088  00000+0  19160-3 0  9995
2 55153  87.9072  76.8801 0002262  89.2375 270.9017 13.18683794102537
ONEWEB-0598             
1 55154U 23004Q   25021.81930515  .00000047  00000+0  97144-4 0  9990
2 55154  87.8905 123.0134 0002352 115.0802 245.0571 13.11414253 98873
ONEWEB-0599             
1 55155U 23004R   25023.18945526  .00000027  00000+0  37325-4 0  9994
2 55155  87.9094 107.4734 0001895 110.8321 249.3014 13.17652279100327
ONEWEB-0614             
1 55156U 23004S   25022.95866072  .00000497  00000+0  13654-2 0  9995
2 55156  87.8905 122.7939 0001580  93.2035 266.9274 13.11418181 98967
ONEWEB-0616             
1 55157U 23004T   25023.61132197 -.00000111  00000+0 -31847-3 0  9994
2 55157  87.9088 107.3879 0001663 142.9390 217.1856 13.17646944100594
ONEWEB-0617             
1 55158U 23004U   25023.25199472  .00000517  00000+0  14231-2 0  9999
2 55158  87.8901 122.7219 0001887  93.6270 266.5073 13.11418350 99020
ONEWEB-0618             
1 55159U 23004V   25023.47089724  .00000793  00000+0  31472-3 0  9995
2 55159  86.9078  15.1464 0011070 294.3833  65.6204 14.27565771106765
ONEWEB-0619             
1 55160U 23004W   25023.18777069  .00000037  00000+0  62274-4 0  9997
2 55160  87.9091 107.4492 0001281  95.7016 264.4261 13.17648060100439
ONEWEB-0620             
1 55161U 23004X   25023.24690343  .00000376  00000+0  10251-2 0  9996
2 55161  87.8908 122.7390 0002104  96.9475 263.1892 13.11418494 98993
ONEWEB-0621             
1 55162U 23004Y   25023.27402515  .00000215  00000+0  57196-3 0  9994
2 55162  87.8900 122.6959 0001483 101.4740 258.6555 13.11414059 98978
ONEWEB-0622             
1 55163U 23004Z   25023.27911650  .00000010  00000+0 -71164-5 0  9997
2 55163  87.8901 122.7149 0002095  82.3312 277.8053 13.11430543 98965
ONEWEB-0623             
1 55164U 23004AA  25023.18271246  .00000052  00000+0  10144-3 0  9992
2 55164  87.9092 107.5049 0001751  77.5459 282.5869 13.17649990100421
ONEWEB-0624             
1 55165U 23004AB  25023.16815489  .00000453  00000+0  12239-2 0  9995
2 55165  87.8862  92.2109 0001764  96.4381 263.6948 13.12444853101156
ONEWEB-0625             
1 55166U 23004AC  25022.94477874  .00000029  00000+0  42455-4 0  9997
2 55166  87.9092 107.5505 0001706 109.3067 250.8249 13.17648532100385
ONEWEB-0626             
1 55167U 23004AD  25023.61807261 -.00000016  00000+0 -73283-4 0  9991
2 55167  87.9089 107.4157 0002395 110.4731 249.6657 13.17647985100470
ONEWEB-0627             
1 55168U 23004AE  25023.60627274  .00000042  00000+0  75576-4 0  9999
2 55168  87.9091 107.4202 0001867  84.8611 275.2733 13.17648966100479
ONEWEB-0628             
1 55169U 23004AF  25023.60610112 -.00000237  00000+0 -69280-3 0  9995
2 55169  87.8858  92.1040 0001627  77.9735 282.1575 13.12445335101195
ONEWEB-0629             
1 55170U 23004AG  25023.58180220  .00000044  00000+0  81145-4 0  9995
2 55170  87.9085 107.3961 0001375 101.3328 258.7958 13.17648764100471
ONEWEB-0631             
1 55171U 23004AH  25023.59033342  .00000034  00000+0  53144-4 0  9996
2 55171  87.9076  76.7988 0002420  94.0488 266.0921 13.18685193102514
